HORYU-4                 
1 41340U 16012D   19302.21323869  .00000617  00000-0  40088-4 0  9999
2 41340  31.0061  10.5958 0014084   3.6792 356.3945 15.01344380202948
E-ST@R-II               
1 41459U 16025D   19302.06132220  .00002197  00000-0  11595-3 0  9991
2 41459  98.1010  35.2248 0165571 273.3295  84.8997 15.05742291192467
AAUSAT 4                
1 41460U 16025E   19302.13310917  .00003520  00000-0  17844-3 0  9996
2 41460  98.0959  36.8865 0155754 264.6323  93.7120 15.07744156192628
DIWATA-1                
1 41463U 98067HT  19302.20841075  .00056556  00000-0  20087-3 0  9997
2 41463  51.6277 275.8100 0002608  65.0860  29.3742 15.88394178200780
BEESAT-4                
1 41619U 16040W   19301.75178128  .00001898  00000-0  82627-4 0  9990
2 41619  97.3530   1.4274 0009596 280.4945  79.5210 15.23408114173968
CANX-7                  
1 41788U 16059F   19302.11009185  .00006919  00000-0  10248-2 0  9991
2 41788  98.2422  19.7771 0023315 304.8604  55.0712 14.75281602165523
RAVAN                   
1 41849U 16067B   19302.15984946  .00001009  00000-0  89898-4 0  9993
2 41849  97.9245  43.2906 0006796 299.8470  60.2076 14.98335825161833
CELTEE 1                
1 41850U 16067C   19301.81511792  .00000390  00000-0  39092-4 0  9995
2 41850  97.9201  41.3123 0007569 307.1962  52.8568 14.97062838161692
OPTICUBE 04             
1 41851U 16067D   19301.84186272  .00000368  00000-0  37381-4 0  9994
2 41851  97.9207  41.0741 0007586 312.8944  47.1639 14.96848524161682
AEROCUBE 8D             
1 41852U 16067E   19301.85171284 -.00000096  00000-0 -30493-5 0  9991
2 41852  97.9215  40.9105 0008554 311.6758  48.3730 14.96780888161661
AEROCUBE 8C             
1 41853U 16067F   19301.87779097  .00000364  00000-0  37144-4 0  9995
2 41853  97.9203  40.8620 0008898 310.3104  49.7339 14.96738813161663
PROMETHEUS 2-1          
1 41854U 16067G   19301.82481491  .00001044  00000-0  96014-4 0  9996
2 41854  97.9216  41.0043 0008888 310.1854  49.8588 14.96990327161666
PROMETHEUS 2-3          
1 41855U 16067H   19301.82665334  .00001107  00000-0  10148-3 0  9990
2 41855  97.9220  41.0274 0009032 310.7620  49.2816 14.96997523161660
INS-1B                  
1 41954U 17008G   19301.79307038  .00001787  00000-0  76150-4 0  9996
2 41954  97.3861   5.0182 0010292  48.5570 311.6550 15.24214777149924
BGUSAT                  
1 41999U 17008BD  19302.17350900  .00002953  00000-0  11564-3 0  9997
2 41999  97.3948   8.3463 0009389  59.1696 301.0465 15.26558611149501
DIDO-2                  
1 42000U 17008BE  19302.18325922  .00001271  00000-0  55194-4 0  9998
2 42000  97.3871   5.9537 0009953  64.0254 296.2008 15.24089734149384
PEASSS                  
1 42015U 17008BV  19302.12717639  .00001593  00000-0  66463-4 0  9996
2 42015  97.3885   7.0679 0007890  69.4313 290.7771 15.25103311149934
AL-FARABI 1             
1 42016U 17008BW  19301.67519383  .00002189  00000-0  88435-4 0  9997
2 42016  97.3905   7.3224 0007769  70.7145 289.4933 15.25800301150020
NAYIF-1 (EO-88)         
1 42017U 17008BX  19302.18437635  .00002110  00000-0  85246-4 0  9995
2 42017  97.3899   7.8366 0007768  69.2005 291.0065 15.25838471150127
ALTAIR PATHFINDER       
1 42711U 98067LS  19301.51086850  .00171288  22868-4  39791-3 0  9991
2 42711  51.6289 320.3803 0004926  28.6442 331.4836 15.96726050140019
NSIGHT                  
1 42726U 98067MF  19302.16496559  .00047608  00000-0  28259-3 0  9995
2 42726  51.6338 348.5862 0005402 349.5908  10.4979 15.77511116138685
UCLSAT                  
1 42765U 17036A   19301.74309008  .00001727  00000-0  76268-4 0  9996
2 42765  97.3359 356.8346 0012899 121.5703 238.6795 15.22987651131152
LITUANICASAT-2          
1 42768U 17036D   19302.10561199  .00002856  00000-0  12329-3 0  9992
2 42768  97.3399 356.8804 0016632 112.8219 247.4776 15.23201078130465
AALTO-1                 
1 42775U 17036L   19301.73029474  .00001060  00000-0  50022-4 0  9992
2 42775  97.3339 355.2571 0015532 114.5579 245.7278 15.21499986130280
URSA MAIOR              
1 42776U 17036M   19301.67904084  .00001187  00000-0  55413-4 0  9994
2 42776  97.3350 355.3995 0015349 114.6312 245.6525 15.21647272130284
COMPASS 2               
1 42777U 17036N   19301.72423466  .00002370  00000-0  10287-3 0  9995
2 42777  97.3396 356.9735 0014094 114.6071 245.6636 15.23218639130367
DIAMOND RED             
1 42783U 17036U   19301.83684402  .00001391  00000-0  63079-4 0  9993
2 42783  97.3358 356.4172 0013584 122.7622 237.4925 15.22401556130357
PEGASUS                 
1 42784U 17036V   19301.78960132  .00001602  00000-0  71533-4 0  9994
2 42784  97.3363 356.6569 0013453 122.1997 238.0546 15.22722372130369
DIAMOND GREEN           
1 42785U 17036W   19302.16433270  .00001367  00000-0  62021-4 0  9996
2 42785  97.3359 356.7646 0013487 122.2778 237.9767 15.22401976130397
DIAMOND BLUE            
1 42786U 17036X   19302.09776672  .00001329  00000-0  60386-4 0  9995
2 42786  97.3359 356.6970 0013320 122.6619 237.5905 15.22401943130384
NUDTSAT                 
1 42787U 17036Y   19301.89714842  .00001562  00000-0  67721-4 0  9993
2 42787  97.3406 357.6723 0011582 114.5849 245.6600 15.23788717130276
SUCHAI                  
1 42788U 17036Z   19302.15341495  .00001810  00000-0  79373-4 0  9996
2 42788  97.3367 357.4047 0013052 120.1134 240.1399 15.23180269130514
SKCUBE                  
1 42789U 17036AA  19301.71860816  .00001767  00000-0  77836-4 0  9994
2 42789  97.3364 356.8951 0012909 121.5862 238.6637 15.23061128130364
VZLUSAT-1               
1 42790U 17036AB  19301.88440425  .00002352  00000-0  10044-3 0  9992
2 42790  97.3382 357.6577 0012521 119.8949 240.3534 15.23788645130428
ROBUSTA-1B              
1 42792U 17036AD  19302.16015125  .00001768  00000-0  77477-4 0  9995
2 42792  97.3364 357.5091 0012490 120.5999 239.6472 15.23240724130455
CICERO 6                
1 42793U 17036AE  19301.73197516  .00001197  00000-0  54139-4 0  9999
2 42793  97.3346 356.7612 0011718 123.2895 236.9466 15.22756740130444
D-SAT                   
1 42794U 17036AF  19301.66966685  .00000395  00000-0  39368-4 0  9999
2 42794  97.5248 340.4633 0127764  62.0765 299.3322 14.91155771128001
CORVUS BC2              
1 42846U 17042X   19301.73231628  .00000151  00000-0  20108-4 0  9996
2 42846  97.5479 190.3438 0009149 343.8932  16.1996 14.92016698124702
CORVUS BC1              
1 42847U 17042Y   19301.74373659  .00000051  00000-0  10303-4 0  9994
2 42847  97.5481 190.4831 0008784 343.7656  16.3281 14.92116941124701
MIRATA                  
1 43015U 17073C   19301.80834610  .00001371  00000-0  11066-3 0  9994
2 43015  97.7177 217.8759 0256198  87.1862 275.8640 14.79175374104820
MAKERSAT 0              
1 43016U 17073D   19302.18483793  .00000954  00000-0  78518-4 0  9991
2 43016  97.7211 218.4408 0258554  86.5409 276.5336 14.78877452104865
ASTERIA                 
1 43020U 98067NH  19302.18650341  .00052352  00000-0  32004-3 0  9991
2 43020  51.6410   0.3036 0002012 337.5512  22.5400 15.76820315110712
DELLINGR (RBLE)         
1 43021U 98067NJ  19301.78423289  .00013989  00000-0  14375-3 0  9990
2 43021  51.6389  23.7663 0001583 259.2813 100.8005 15.65200439110368
AEROCUBE 7B (OCSD B)    
1 43042U 17071F   19301.88560519  .00003995  00000-0  10192-3 0  9997
2 43042  51.6361 126.3144 0003884 274.2849  85.7693 15.41919779106476
AEROCUBE 7C (OCSD C)    
1 43043U 17071G   19301.88565084  .00003746  00000-0  96192-4 0  9999
2 43043  51.6362 126.3295 0004106 279.6231  80.4290 15.41910994106449
CHEFSAT                 
1 43044U 17071H   19301.89052100  .00008079  00000-0  17652-3 0  9998
2 43044  51.6374 118.2771 0003976 277.4184  82.6351 15.45109652106558
ASGARDIA 1              
1 43049U 17071N   19301.89212043  .00003645  00000-0  93481-4 0  9996
2 43049  51.6372 125.6662 0001712 301.6915  58.3903 15.42033456106457
ISARA                   
1 43050U 17071P   19301.75579229  .00007792  00000-0  17388-3 0  9993
2 43050  51.6357 120.3148 0001540 292.1699  67.9124 15.44535207106516
PROPCUBE 2 (FAUNA)      
1 43052U 17071R   19301.93704242  .00004422  00000-0  11018-3 0  9991
2 43052  51.6367 124.4852 0001627 295.5806  64.5011 15.42359531106463
CORVUS BC3              
1 43118U 18004H   19302.19959685  .00001125  00000-0  50807-4 0  9990
2 43118  97.4734   9.0314 0011435 140.9023 219.3042 15.23011845 99642
MICROMAS-2A             
1 43131U 18004W   19302.15359122  .00002399  00000-0  10048-3 0  9997
2 43131  97.4768   9.9962 0010427 141.3813 218.8172 15.24480430 99698
SPACEBEE-4              
1 43139U 18004AE  19301.90020641  .00003468  00000-0  13987-3 0  9991
2 43139  97.4792  10.4369 0009842 143.8457 216.3448 15.25459866 99690
SPACEBEE-3              
1 43140U 18004AF  19302.15738745  .00004377  00000-0  17242-3 0  9990
2 43140  97.4802  11.0690 0009661 142.4292 217.7623 15.26096301 99758
SPACEBEE-2              
1 43141U 18004AG  19301.84875982  .00004275  00000-0  16740-3 0  9990
2 43141  97.4812  10.8898 0009626 143.1004 217.0898 15.26311361 99716
SPACEBEE-1              
1 43142U 18004AH  19301.86198967  .00004880  00000-0  18930-3 0  9999
2 43142  97.4813  11.0486 0009643 143.1518 217.0385 15.26555935 99711
CICERO 7                
1 43143U 18004AJ  19301.83840312  .00002348  00000-0  98158-4 0  9993
2 43143  97.4752   9.8937 0008368 148.9273 211.2461 15.24586583 99660
GOMX-4B                 
1 43196U 18015E   19301.87638200  .00000949  00000-0  41950-4 0  9991
2 43196  97.4076  67.7000 0018134 199.4475 160.6066 15.24047823 96471
GOMX-4A                 
1 43197U 18015F   19302.06232765  .00001302  00000-0  56235-4 0  9996
2 43197  97.4086  67.9210 0018510 198.4904 249.1225 15.24167290 96518
1KUNS-PF                
1 43466U 98067NP  19301.68036473  .00039852  00000-0  30601-3 0  9994
2 43466  51.6363  22.2487 0001828 339.5294  20.5631 15.71645570 83636
